{"type": "FeatureCollection", "features": [{"type": "Feature", "properties": {"norad_id": 26766, "name": "INTELSAT 10 (IS-10)", "group": "intelsat", "lat": 7.721979805264651, "lon": 124.35646282993117, "alt_km": 36154.08443647595, "timestamp": "2025-12-09T16:56:36.247669+00:00", "meta": {"OBJECT_NAME": "INTELSAT 10 (IS-10)", "OBJECT_ID": "2001-019A", "EPOCH": "2025-12-09T10:09:51.789312", "MEAN_MOTION": 0.99078995, "ECCENTRICITY": 0.0007841, "INCLINATION": 8.6222, "RA_OF_ASC_NODE": 61.19, "ARG_OF_PERICENTER": 222.7814, "MEAN_ANOMALY": 99.9246, "EPHEMERIS_TYPE": 0, "CLASSIFICATION_TYPE": "U", "NORAD_CAT_ID": 26766, "ELEMENT_SET_NO": 999, "REV_AT_EPOCH": 4369, "BSTAR": 0, "MEAN_MOTION_DOT": -2.83e-06, "MEAN_MOTION_DDOT": 0}, "tle": {"line1": "1 26766U 01019A   25343.42351608 -.00000283  00000+0  00000+0 0  9996", "line2": "2 26766   8.6222  61.1900 0007841 222.7814  99.9246  0.99078995 43699"}}, "geometry": {"type": "Point", "coordinates": [124.35646282993117, 7.721979805264651]}}, {"type": "Feature", "properties": {"norad_id": 26900, "name": "INTELSAT 902 (IS-902)", "group": "intelsat", "lat": -2.7132317382450726, "lon": -77.43405801372897, "alt_km": 35772.44021103642, "timestamp": "2025-12-09T16:56:36.247694+00:00", "meta": {"OBJECT_NAME": "INTELSAT 902 (IS-902)", "OBJECT_ID": "2001-039A", "EPOCH": "2025-12-01T16:59:59.311968", "MEAN_MOTION": 1.00270327, "ECCENTRICITY": 0.00043097, "INCLINATION": 5.6187, "RA_OF_ASC_NODE": 74.2002, "ARG_OF_PERICENTER": 175.119, "MEAN_ANOMALY": 26.3816, "EPHEMERIS_TYPE": 0, "CLASSIFICATION_TYPE": "U", "NORAD_CAT_ID": 26900, "ELEMENT_SET_NO": 999, "REV_AT_EPOCH": 8871, "BSTAR": 0, "MEAN_MOTION_DOT": -2.63e-06, "MEAN_MOTION_DDOT": 0}, "tle": {"line1": "1 26900U 01039A   25335.70832537 -.00000263  00000+0  00000+0 0  9993", "line2": "2 26900   5.6187  74.2002 0004309 175.1190  26.3816  1.00270327 88713"}}, "geometry": {"type": "Point", "coordinates": [-77.43405801372897, -2.7132317382450726]}}, {"type": "Feature", "properties": {"norad_id": 27380, "name": "INTELSAT 904 (IS-904)", "group": "intelsat", "lat": -4.941451498119835, "lon": -58.844002315958036, "alt_km": 35780.1963849796, "timestamp": "2025-12-09T16:56:36.247710+00:00", "meta": {"OBJECT_NAME": "INTELSAT 904 (IS-904)", "OBJECT_ID": "2002-007A", "EPOCH": "2025-12-09T03:09:01.481760", "MEAN_MOTION": 1.00273059, "ECCENTRICITY": 0.0001528, "INCLINATION": 6.446, "RA_OF_ASC_NODE": 71.4727, "ARG_OF_PERICENTER": 214.649, "MEAN_ANOMALY": 167.7401, "EPHEMERIS_TYPE": 0, "CLASSIFICATION_TYPE": "U", "NORAD_CAT_ID": 27380, "ELEMENT_SET_NO": 999, "REV_AT_EPOCH": 4986, "BSTAR": 0, "MEAN_MOTION_DOT": -2.25e-06, "MEAN_MOTION_DDOT": 0}, "tle": {"line1": "1 27380U 02007A   25343.13126715 -.00000225  00000+0  00000+0 0  9990", "line2": "2 27380   6.4460  71.4727 0001528 214.6490 167.7401  1.00273059 49862"}}, "geometry": {"type": "Point", "coordinates": [-58.844002315958036, -4.941451498119835]}}, {"type": "Feature", "properties": {"norad_id": 27426, "name": "DIRECTV 5 (TEMPO 1)", "group": "intelsat", "lat": 2.502799539016832, "lon": -137.22613306625385, "alt_km": 35776.33737191745, "timestamp": "2025-12-09T16:56:36.247724+00:00", "meta": {"OBJECT_NAME": "DIRECTV 5 (TEMPO 1)", "OBJECT_ID": "2002-023A", "EPOCH": "2025-12-09T12:28:39.653760", "MEAN_MOTION": 1.00272054, "ECCENTRICITY": 0.0003908, "INCLINATION": 4.3941, "RA_OF_ASC_NODE": 77.689, "ARG_OF_PERICENTER": 200.7432, "MEAN_ANOMALY": 237.1271, "EPHEMERIS_TYPE": 0, "CLASSIFICATION_TYPE": "U", "NORAD_CAT_ID": 27426, "ELEMENT_SET_NO": 999, "REV_AT_EPOCH": 8622, "BSTAR": 0, "MEAN_MOTION_DOT": -5.5e-07, "MEAN_MOTION_DDOT": 0}, "tle": {"line1": "1 27426U 02023A   25343.51990340 -.00000055  00000+0  00000+0 0  9995", "line2": "2 27426   4.3941  77.6890 0003908 200.7432 237.1271  1.00272054 86221"}}, "geometry": {"type": "Point", "coordinates": [-137.22613306625385, 2.502799539016832]}}, {"type": "Feature", "properties": {"norad_id": 27438, "name": "INTELSAT 905 (IS-905)", "group": "intelsat", "lat": 5.224458482082087, "lon": -164.22869958710197, "alt_km": 35780.8638009369, "timestamp": "2025-12-09T16:56:36.247737+00:00", "meta": {"OBJECT_NAME": "INTELSAT 905 (IS-905)", "OBJECT_ID": "2002-027A", "EPOCH": "2025-12-09T11:59:00.274272", "MEAN_MOTION": 1.00271823, "ECCENTRICITY": 0.0002847, "INCLINATION": 6.2778, "RA_OF_ASC_NODE": 72.0923, "ARG_OF_PERICENTER": 191.5585, "MEAN_ANOMALY": 217.3829, "EPHEMERIS_TYPE": 0, "CLASSIFICATION_TYPE": "U", "NORAD_CAT_ID": 27438, "ELEMENT_SET_NO": 999, "REV_AT_EPOCH": 4946, "BSTAR": 0, "MEAN_MOTION_DOT": 9.5e-07, "MEAN_MOTION_DDOT": 0}, "tle": {"line1": "1 27438U 02027A   25343.49930873  .00000095  00000+0  00000+0 0  9997", "line2": "2 27438   6.2778  72.0923 0002847 191.5585 217.3829  1.00271823 49463"}}, "geometry": {"type": "Point", "coordinates": [-164.22869958710197, 5.224458482082087]}}, {"type": "Feature", "properties": {"norad_id": 27445, "name": "GALAXY 3C (G-3C)", "group": "intelsat", "lat": 1.2288495873700325, "lon": -121.97363988427321, "alt_km": 35783.719044078905, "timestamp": "2025-12-09T16:56:36.247750+00:00", "meta": {"OBJECT_NAME": "GALAXY 3C (G-3C)", "OBJECT_ID": "2002-030A", "EPOCH": "2025-12-09T12:22:29.345088", "MEAN_MOTION": 1.00271037, "ECCENTRICITY": 0.0001139, "INCLINATION": 3.2564, "RA_OF_ASC_NODE": 80.5364, "ARG_OF_PERICENTER": 97.8512, "MEAN_ANOMALY": 350.8775, "EPHEMERIS_TYPE": 0, "CLASSIFICATION_TYPE": "U", "NORAD_CAT_ID": 27445, "ELEMENT_SET_NO": 999, "REV_AT_EPOCH": 4459, "BSTAR": 0, "MEAN_MOTION_DOT": -1.5e-06, "MEAN_MOTION_DDOT": 0}, "tle": {"line1": "1 27445U 02030A   25343.51561742 -.00000150  00000+0  00000+0 0  9990", "line2": "2 27445   3.2564  80.5364 0001139  97.8512 350.8775  1.00271037 44594"}}, "geometry": {"type": "Point", "coordinates": [-121.97363988427321, 1.2288495873700325]}}, {"type": "Feature", "properties": {"norad_id": 27513, "name": "INTELSAT 906 (IS-906)", "group": "intelsat", "lat": -3.276690809409958, "lon": 37.15162296963876, "alt_km": 35803.90271625848, "timestamp": "2025-12-09T16:56:36.247762+00:00", "meta": {"OBJECT_NAME": "INTELSAT 906 (IS-906)", "OBJECT_ID": "2002-041A", "EPOCH": "2025-12-09T08:44:29.355360", "MEAN_MOTION": 1.00270946, "ECCENTRICITY": 0.0006101, "INCLINATION": 5.3202, "RA_OF_ASC_NODE": 75.2716, "ARG_OF_PERICENTER": 190.1287, "MEAN_ANOMALY": 8.2128, "EPHEMERIS_TYPE": 0, "CLASSIFICATION_TYPE": "U", "NORAD_CAT_ID": 27513, "ELEMENT_SET_NO": 999, "REV_AT_EPOCH": 8512, "BSTAR": 0, "MEAN_MOTION_DOT": 1.4e-07, "MEAN_MOTION_DDOT": 0}, "tle": {"line1": "1 27513U 02041A   25343.36422865  .00000014  00000+0  00000+0 0  9991", "line2": "2 27513   5.3202  75.2716 0006101 190.1287   8.2128  1.00270946 85122"}}, "geometry": {"type": "Point", "coordinates": [37.15162296963876, -3.276690809409958]}}, {"type": "Feature", "properties": {"norad_id": 27954, "name": "GALAXY 13 (HORIZONS-1)", "group": "intelsat", "lat": 0.9151792972700307, "lon": -177.1754522640032, "alt_km": 35782.92397113101, "timestamp": "2025-12-09T16:56:36.247775+00:00", "meta": {"OBJECT_NAME": "GALAXY 13 (HORIZONS-1)", "OBJECT_ID": "2003-044A", "EPOCH": "2025-12-09T11:51:44.140032", "MEAN_MOTION": 1.00270089, "ECCENTRICITY": 0.0002024, "INCLINATION": 0.9271, "RA_OF_ASC_NODE": 86.5122, "ARG_OF_PERICENTER": 162.1797, "MEAN_ANOMALY": 217.7304, "EPHEMERIS_TYPE": 0, "CLASSIFICATION_TYPE": "U", "NORAD_CAT_ID": 27954, "ELEMENT_SET_NO": 999, "REV_AT_EPOCH": 4467, "BSTAR": 0, "MEAN_MOTION_DOT": 1.35e-06, "MEAN_MOTION_DDOT": 0}, "tle": {"line1": "1 27954U 03044A   25343.49426088  .00000135  00000+0  00000+0 0  9993", "line2": "2 27954   0.9271  86.5122 0002024 162.1797 217.7304  1.00270089 44675"}}, "geometry": {"type": "Point", "coordinates": [-177.1754522640032, 0.9151792972700307]}}, {"type": "Feature", "properties": {"norad_id": 28358, "name": "INTELSAT 10-02", "group": "intelsat", "lat": -0.02723554737643541, "lon": -28.120950815103246, "alt_km": 35782.91037893621, "timestamp": "2025-12-09T16:56:36.247788+00:00", "meta": {"OBJECT_NAME": "INTELSAT 10-02", "OBJECT_ID": "2004-022A", "EPOCH": "2025-12-09T06:50:38.879808", "MEAN_MOTION": 1.00271108, "ECCENTRICITY": 0.0001202, "INCLINATION": 0.0278, "RA_OF_ASC_NODE": 66.818, "ARG_OF_PERICENTER": 216.4539, "MEAN_ANOMALY": 256.6971, "EPHEMERIS_TYPE": 0, "CLASSIFICATION_TYPE": "U", "NORAD_CAT_ID": 28358, "ELEMENT_SET_NO": 999, "REV_AT_EPOCH": 7865, "BSTAR": 0, "MEAN_MOTION_DOT": -9e-08, "MEAN_MOTION_DDOT": 0}, "tle": {"line1": "1 28358U 04022A   25343.28517222 -.00000009  00000+0  00000+0 0  9998", "line2": "2 28358   0.0278  66.8180 0001202 216.4539 256.6971  1.00271108 78651"}}, "geometry": {"type": "Point", "coordinates": [-28.120950815103246, -0.02723554737643541]}}, {"type": "Feature", "properties": {"norad_id": 28626, "name": "XM-3 (RHYTHM)", "group": "intelsat", "lat": 0.07602458437175785, "lon": 101.58051659678411, "alt_km": 36162.23197356652, "timestamp": "2025-12-09T16:56:36.247800+00:00", "meta": {"OBJECT_NAME": "XM-3 (RHYTHM)", "OBJECT_ID": "2005-008A", "EPOCH": "2025-12-09T10:46:01.308000", "MEAN_MOTION": 0.98953733, "ECCENTRICITY": 0.0001372, "INCLINATION": 0.1663, "RA_OF_ASC_NODE": 81.1985, "ARG_OF_PERICENTER": 264.6619, "MEAN_ANOMALY": 24.0313, "EPHEMERIS_TYPE": 0, "CLASSIFICATION_TYPE": "U", "NORAD_CAT_ID": 28626, "ELEMENT_SET_NO": 999, "REV_AT_EPOCH": 4071, "BSTAR": 0, "MEAN_MOTION_DOT": -2.4e-06, "MEAN_MOTION_DDOT": 0}, "tle": {"line1": "1 28626U 05008A   25343.44862625 -.00000240  00000+0  00000+0 0  9996", "line2": "2 28626   0.1663  81.1985 0001372 264.6619  24.0313  0.98953733 40713"}}, "geometry": {"type": "Point", "coordinates": [101.58051659678411, 0.07602458437175785]}}]}